PLEIADES NEO 3          
1 48268U 21034A   26197.29210853  .00000224  00000+0  35025-4 0  9999
2 48268  97.8944 271.6400 0001323  95.1532 264.9832 14.81668086281963
PLEIADES NEO 4          
1 49070U 21073E   26197.32586578  .00000404  00000+0  57940-4 0  9998
2 49070  97.8943 271.6692 0001359  93.2948 266.8421 14.81673982265683
